BEIDOU-2 G8             
1 44231U 19027A   26155.16599464 -.00000235  00000+0  00000+0 0  9995
2 44231   1.6255  74.4913 0010765 284.2571  98.0941  1.00276022 25953
COSMOS 2534 [GLONASS-M] 
1 44299U 19030A   26154.62913067  .00000066  00000+0  00000+0 0  9993
2 44299  64.3676 193.0731 0013144 275.2936 262.5197  2.13102470 54633
BEIDOU-3 IGSO-2         
1 44337U 19035A   26154.61080799 -.00000071  00000+0  00000+0 0  9994
2 44337  55.2443 158.9810 0039672 216.0015 216.9100  1.00271103 25539
NAVSTAR 78 (USA 293)    
1 44506U 19056A   26153.44735856 -.00000081  00000+0  00000+0 0  9997
2 44506  55.6403 331.7284 0061230 197.3681 346.8768  2.00569922 49773
BEIDOU-3 M24            
1 44542U 19061A   26154.81861688  .00000068  00000+0  00000+0 0  9992
2 44542  54.3956 183.1788 0008298 359.6968   0.3644  1.86229258 45540
BEIDOU-3 M23            
1 44543U 19061B   26154.68386650  .00000068  00000+0  00000+0 0  9999
2 44543  54.3944 183.1515 0005545 339.9978 201.4019  1.86227422 45541
EUTELSAT 5 WEST B       
1 44624U 19067A   26155.13635450 -.00000030  00000+0  00000+0 0  9991
2 44624   0.0658 337.5387 0003381  96.1475 222.9953  1.00272085 24300
BEIDOU-3 IGSO-3         
1 44709U 19073A   26136.81046384 -.00000217  00000+0  00000+0 0  9995
2 44709  54.8566 281.2355 0042953 189.4588 170.3676  1.00246251 24144
BEIDOU-3 M22            
1 44793U 19078A   26151.97339797 -.00000079  00000+0  00000+0 0  9996
2 44793  53.9515 300.3973 0006799  49.8773 310.1558  1.86227466 44341
BEIDOU-3 M21            
1 44794U 19078B   26152.11336162 -.00000078  00000+0  00000+0 0  9996
2 44794  53.9245 300.3540 0004659  48.1106 311.9031  1.86227902 44358
COSMOS 2544 [GLONASS-M] 
1 44850U 19088A   26154.42078502 -.00000013  00000+0  00000+0 0  9996
2 44850  65.5590  74.1895 0013696 260.0855  99.7743  2.13102136 50427
BEIDOU-3 M19            
1 44864U 19090A   26153.18027023 -.00000055  00000+0  00000+0 0  9994
2 44864  56.5459  63.2868 0018350 297.3172 255.2065  1.86231755 43957
BEIDOU-3 M20            
1 44865U 19090B   26152.40309426 -.00000062  00000+0  00000+0 0  9997
2 44865  56.5472  63.3464 0016275 310.6292 170.4314  1.86231789 43921
BEIDOU-3 G2             
1 45344U 20017A   26155.21225333 -.00000129  00000+0  00000+0 0  9991
2 45344   2.8382  47.1563 0002877  24.6448 337.2914  1.00270995 23134
COSMOS 2545 [GLONASS-M] 
1 45358U 20018A   26154.14658972 -.00000045  00000+0  00000+0 0  9994
2 45358  64.3637 312.9119 0007797 231.7288 128.1886  2.13102718 48363
BEIDOU-3 G3             
1 45807U 20040A   26155.08791670 -.00000342  00000+0  00000+0 0  9995
2 45807   2.4155  67.4219 0003085 335.3952 351.9314  1.00274764 21930
NAVSTAR 79 (USA 304)    
1 45854U 20041A   26154.52221477 -.00000074  00000+0  00000+0 0  9991
2 45854  56.6608  29.4739 0063382 204.6456 334.6947  2.00559276 43764
GALAXY 30 (G-30)        
1 46114U 20056C   26154.97000284  .00000049  00000+0  00000+0 0  9998
2 46114   0.0126  35.0814 0002457  36.0547  45.4718  1.00272060 21168
COSMOS 2547 [GLONASS-K] 
1 46805U 20075A   26152.45898882  .00000073  00000+0  00000+0 0  9993
2 46805  64.5982 193.0008 0009130 239.1969 120.7967  2.13100326 43571
NAVSTAR 80 (USA 309)    
1 46826U 20078A   26154.41710398  .00000040  00000+0  00000+0 0  9996
2 46826  53.9816 211.3373 0072916 206.8383 232.4954  2.00565038 41233
NAVSTAR 81 (USA 319)    
1 48859U 21054A   26154.54734624 -.00000077  00000+0  00000+0 0  9992
2 48859  55.1814 333.0080 0024911 228.6034 130.8970  2.00570190 36471
QZS-1R (MICHIBIKI-1R)   
1 49336U 21096A   26154.66336014 -.00000252  00000+0  00000+0 0  9998
2 49336  37.4347  79.7838 0754074 271.5206 274.3869  1.00260981 16875
GSAT0223 (GALILEO 27)   
1 49809U 21116A   26152.45081590 -.00000080  00000+0  00000+0 0  9996
2 49809  57.1649 342.0998 0001008 179.2401   2.8148  1.70476346 27912
GSAT0224 (GALILEO 28)   
1 49810U 21116B   26152.84978400 -.00000079  00000+0  00000+0 0  9994
2 49810  57.1667 342.0878 0000821 134.5472  44.9862  1.70476406 27945
COSMOS 2557 [GLONASS-K] 
1 52984U 22075A   26153.56187851 -.00000050  00000+0  00000+0 0  9996
2 52984  64.3077 315.0006 0010140 276.1929  83.6791  2.13102309 30406
COSMOS 2559 [GLONASS-K] 
1 54031U 22130A   26151.97369020 -.00000061  00000+0  00000+0 0  9998
2 54031  64.2818 315.1401 0012220 176.8765 183.1177  2.13101759 28340
COSMOS 2564 [GLONASS-M] 
1 54377U 22161A   26154.16334427  .00000067  00000+0  00000+0 0  9997
2 54377  64.7404 193.1773 0011992 223.9964 135.9862  2.13102101 27331
NAVSTAR 82 (USA 343)    
1 55268U 23009A   26154.74398397  .00000065  00000+0  00000+0 0  9997
2 55268  55.1213 149.0473 0006173 316.5044 223.0998  2.00572547 24970
BEIDOU-3 G4             
1 56564U 23066A   26155.16504131 -.00000270  00000+0  00000+0 0  9991
2 56564   0.5024 328.1274 0004392 167.7112 316.2211  1.00268888 11266
NVS-01 (IRNSS-1J)       
1 56759U 23076A   26155.02039436 -.00000323  00000+0  00000+0 0  9993
2 56759   2.1975 244.9470 0002875  44.2586 100.2095  1.00272316 10986
COSMOS 2569 [GLONASS-K2]
1 57517U 23114A   26153.23716213 -.00000024  00000+0  00000+0 0  9993
2 57517  65.2941  73.1245 0011235 296.7139  63.1811  2.13103818 21948
